{
  "type": "FeatureCollection",
  "features": [
    {
      "type": "Feature",
      "properties": {},
      "geometry": {
        "coordinates": [
          [
            [
              30.353478286493697,
              -2.141239369180724
            ],
            [
              30.353478286493697,
              -2.1808659526320042
            ],
            [
              30.38750505700534,
              -2.1808659526320042
            ],
            [
              30.38750505700534,
              -2.141239369180724
            ],
            [
              30.353478286493697,
              -2.141239369180724
            ]
          ]
        ],
        "type": "Polygon"
      }
    }
  ]
}